GAOFEN-3 03             
1 52200U 22035A   22123.51744723  .00000044  00000+0  26708-4 0  9998
2 52200  98.4153 132.0918 0001578  88.5653 271.5720 14.42209561  3833
CZ-4C R/B               
1 52201U 22035B   22123.09721615  .00001057  00000+0  16723-3 0  9997
2 52201  98.3983 132.7491 0111121 328.8293  30.6420 14.70583759  3839
COSMOS 2554             
1 52202U 22036A   22123.53542488 -.00000007  00000+0  49181-4 0  9997
2 52202  67.1491 288.1634 0006848 264.4700  95.5591 13.96674646  3696
SL-4 R/B                
1 52203U 22036B   22123.53391529  .00116237  71649-5  56806-3 0  9992
2 52203  67.1349 276.2869 0428998  68.0846 296.5266 15.11409416  3928
CHINASAT 6D             
1 52255U 22038A   22122.46451405 -.00000335  00000+0  00000+0 0  9992
2 52255   0.0527 280.0442 0002404 334.9729 262.5268  1.00268633   338
CZ-3B R/B               
1 52256U 22038B   22122.79583421  .00046854  52516-6  30291-2 0  9992
2 52256  28.5223  14.0269 7208225 189.6554 139.6432  2.40406860   424
DAQI 1                  
1 52257U 22039A   22123.43838467  .00000476  00000+0  11430-3 0  9998
2 52257  98.1349  64.9400 0001079 185.1560 174.9613 14.57670423  2577
CZ-4C R/B               
1 52258U 22039B   22123.59467063  .00003725  00000+0  32124-3 0  9999
2 52258  98.1638  66.0923 0139494   4.2324 356.0036 14.90710735  2653
SZ-13 MODULE            
1 52260U 21092C   22123.41175676  .00023655  00000+0  23259-3 0  9990
2 52260  41.4799 130.6128 0008630 171.0183 189.0813 15.65403434  2333
STARLINK-3810           
1 52261U 22041A   22123.58334491 -.00060528  00000+0 -42878-3 0  9996
2 52261  53.2148 315.9500 0001221  62.5043 317.1030 15.73263751  2524
STARLINK-3761           
1 52262U 22041B   22123.58334491 -.00030699  00000+0 -21445-3 0  9990
2 52262  53.2148 315.9511 0001226  69.0796 309.3378 15.73271655  2529
STARLINK-3786           
1 52263U 22041C   22123.58334491  .00038499  00000+0  27736-3 0  9994
2 52263  53.2149 315.9507 0001479  72.0999 306.9291 15.73209125  2525
STARLINK-3795           
1 52264U 22041D   22123.58334491  .00024723  00000+0  17992-3 0  9993
2 52264  53.2147 315.9473 0001347  82.2517 297.9618 15.73217391  2525
STARLINK-3740           
1 52265U 22041E   22123.58334491 -.00050600  00000+0 -35716-3 0  9993
2 52265  53.2148 315.9471 0001102  58.1280 322.6828 15.73273113  2526
STARLINK-3739           
1 52266U 22041F   22123.58334491 -.00033342  00000+0 -23345-3 0  9993
2 52266  53.2149 315.9449 0001232  60.2280 321.1764 15.73263281  2529
STARLINK-3748           
1 52267U 22041G   22123.58334491 -.00028832  00000+0 -20139-3 0  9990
2 52267  53.2150 315.9443 0000986  64.8562 317.1736 15.73238661  2522
STARLINK-3746           
1 52268U 22041H   22123.58334491 -.00006297  00000+0 -40449-4 0  9999
2 52268  53.2147 315.9399 0001139  62.7780 321.0212 15.73219593  2525
STARLINK-3791           
1 52269U 22041J   22123.58334491 -.00038938  00000+0 -27380-3 0  9995
2 52269  53.2149 315.9432 0001052  64.3870 318.2352 15.73242959  2523
STARLINK-3804           
1 52270U 22041K   22123.58334491 -.00054128  00000+0 -38236-3 0  9998
2 52270  53.2149 315.9371 0001006  56.8100 328.1606 15.73283727  2528
STARLINK-3788           
1 52271U 22041L   22123.58334491 -.00027841  00000+0 -19408-3 0  9991
2 52271  53.2150 315.9419 0001095  63.9107 319.2532 15.73263650  2520
STARLINK-3781           
1 52272U 22041M   22123.58334491  .00009023  00000+0  68585-4 0  9993
2 52272  53.2149 315.9347 0001109  62.0938 324.1133 15.73218302  2523
STARLINK-3782           
1 52273U 22041N   22123.58334491  .00012529  00000+0  93410-4 0  9994
2 52273  53.2149 315.9387 0001071  63.4635 320.9520 15.73236661  2527
STARLINK-3790           
1 52274U 22041P   22123.58334491  .00008101  00000+0  61974-4 0  9996
2 52274  53.2148 315.9306 0001219  62.8858 325.0668 15.73241146  2525
STARLINK-3784           
1 52275U 22041Q   22123.58334491 -.00053984  00000+0 -38141-3 0  9997
2 52275  53.2149 315.9363 0001140  61.0689 324.5079 15.73278244  2525
STARLINK-3778           
1 52276U 22041R   22123.58334491  .00000403  00000+0  72752-5 0  9992
2 52276  53.2150 315.9281 0001134  57.7946 331.3656 15.73239255  2524
STARLINK-3787           
1 52277U 22041S   22123.58334491 -.00054281  00000+0 -38367-3 0  9990
2 52277  53.2150 315.9338 0001090  56.7787 330.0159 15.73271088  2525
STARLINK-3780           
1 52278U 22041T   22123.58334491 -.00089764  00000+0 -63995-3 0  9990
2 52278  53.2149 315.9266 0001204  50.4441 339.3442 15.73274571  2526
STARLINK-3686           
1 52279U 22041U   22123.58334491  .00148670  00000+0  10478-2 0  9998
2 52279  53.2148 315.9321 0001343  60.5280 326.7950 15.73138605  2526
STARLINK-3764           
1 52280U 22041V   22123.58334491  .00031514  00000+0  22815-3 0  9997
2 52280  53.2151 315.9222 0001239  59.1229 332.4671 15.73195825  2524
STARLINK-3779           
1 52281U 22041W   22123.58334491 -.00049729  00000+0 -35076-3 0  9990
2 52281  53.2147 315.9300 0001137  58.6931 329.8277 15.73282098  2529
STARLINK-3783           
1 52282U 22041X   22123.58334491 -.00067606  00000+0 -47952-3 0  9991
2 52282  53.2148 315.9205 0001016  53.9813 338.7333 15.73279937  2528
STARLINK-3789           
1 52283U 22041Y   22123.58334491  .00023432  00000+0  17065-3 0  9991
2 52283  53.2149 315.9257 0001044  62.4378 327.8785 15.73235259  2528
STARLINK-3561           
1 52284U 22041Z   22123.58334491 -.00199941  00000+0 -14477-2 0  9996
2 52284  53.2146 315.9172 0001182  57.6416 336.2852 15.73305705  2538
STARLINK-3775           
1 52285U 22041AA  22123.58334491  .00042971  00000+0  30907-3 0  9992
2 52285  53.2150 315.9245 0001555  66.9785 323.9784 15.73196216  2522
STARLINK-3802           
1 52286U 22041AB  22123.58334491  .00043687  00000+0  31407-3 0  9994
2 52286  53.2149 315.9151 0001325  71.3695 323.7701 15.73199854  2520
STARLINK-3822           
1 52287U 22041AC  22123.58334491 -.00065690  00000+0 -46582-3 0  9995
2 52287  53.2151 315.9222 0000980  49.4942 342.6327 15.73273749  2520
STARLINK-3776           
1 52288U 22041AD  22123.58334491  .00033213  00000+0  24020-3 0  9993
2 52288  53.2149 315.9138 0001239  68.4959 327.2290 15.73192800  2527
STARLINK-3751           
1 52289U 22041AE  22123.58334491 -.00061356  00000+0 -43449-3 0  9991
2 52289  53.2151 315.9193 0001166  48.7091 344.6006 15.73277574  2529
STARLINK-3772           
1 52290U 22041AF  22123.58334491 -.00009736  00000+0 -65070-4 0  9992
2 52290  53.2146 315.9098 0001339  53.1671 344.3491 15.73186824  2527
STARLINK-3773           
1 52291U 22041AG  22123.58334491  .00038222  00000+0  27531-3 0  9992
2 52291  53.2150 315.9166 0001269  67.9391 326.5770 15.73216919  2524
STARLINK-3753           
1 52292U 22041AH  22123.58334491 -.00054535  00000+0 -38549-3 0  9991
2 52292  53.2149 315.9075 0001088  47.7035 350.9633 15.73271296  2520
STARLINK-3771           
1 52293U 22041AJ  22123.58334491  .00008306  00000+0  63445-4 0  9999
2 52293  53.2151 315.9131 0001309  63.6629 332.6830 15.73236271  2529
STARLINK-3777           
1 52294U 22041AK  22123.58334491 -.00042291  00000+0 -29763-3 0  9997
2 52294  53.2149 315.9065 0001133  60.1593 339.1450 15.73262363  2521
STARLINK-3765           
1 52295U 22041AL  22123.58334491  .00005125  00000+0  40881-4 0  9996
2 52295  53.2149 315.9116 0001405  57.0134 339.9252 15.73217468  2521
STARLINK-3766           
1 52296U 22041AM  22123.58334491 -.00027673  00000+0 -19304-3 0  9996
2 52296  53.2149 315.9029 0001409  64.8017 336.2912 15.73242667  2527
STARLINK-3758           
1 52297U 22041AN  22123.58334491 -.00063953  00000+0 -45314-3 0  9998
2 52297  53.2150 315.9094 0001556  66.0520 332.0055 15.73279952  2527
STARLINK-3760           
1 52298U 22041AP  22123.58334491 -.00050823  00000+0 -35902-3 0  9993
2 52298  53.2150 315.9011 0001262  58.0781 343.6062 15.73256081  2525
STARLINK-3759           
1 52299U 22041AQ  22123.58334491 -.00014746  00000+0 -10072-3 0  9999
2 52299  53.2151 315.9042 0000995  46.5998 353.8578 15.73227651  2521
STARLINK-3769           
1 52300U 22041AR  22123.58334491 -.00034735  00000+0 -24338-3 0  9992
2 52300  53.2151 315.8988 0001419  68.1968 334.6653 15.73267065  2525
STARLINK-3768           
1 52301U 22041AS  22123.58334491  .00021294  00000+0  15557-3 0  9990
2 52301  53.2150 315.9052 0000981  44.3720 355.4857 15.73227616  2528
STARLINK-3564           
1 52302U 22041AT  22123.58334491  .00007200  00000+0  55597-4 0  9991
2 52302  53.2149 315.8950 0001432  64.3847 340.2673 15.73233138  2532
STARLINK-3742           
1 52303U 22041AU  22123.58334491  .00037752  00000+0  27207-3 0  9993
2 52303  53.2149 315.9004 0001601  61.4798 340.7924 15.73210616  2524
STARLINK-3744           
1 52304U 22041AV  22123.58334491 -.00060837  00000+0 -43067-3 0  9998
2 52304  53.2150 315.8936 0001309  59.7147 345.4601 15.73281771  2527
STARLINK-3724           
1 52305U 22041AW  22123.58334491 -.00069418  00000+0 -49249-3 0  9991
2 52305  53.2152 315.8980 0001406  66.7401 336.6819 15.73283874  2527
STARLINK-3747           
1 52306U 22041AX  22123.58334491  .00040172  00000+0  28891-3 0  9996
2 52306  53.2147 315.8926 0001212  61.1604 344.6434 15.73229864  2522
STARLINK-3755           
1 52307U 22041AY  22123.58334491 -.00060384  00000+0 -42752-3 0  9998
2 52307  53.2151 315.8968 0001264  64.0293 340.0036 15.73275689  2521
STARLINK-3745           
1 52308U 22041AZ  22123.58334491  .00043364  00000+0  31175-3 0  9993
2 52308  53.2149 315.8895 0000964  62.0396 344.9707 15.73203285  2527
STARLINK-3756           
1 52309U 22041BA  22123.58334491 -.00071919  00000+0 -51151-3 0  9999
2 52309  53.2150 315.8920 0001546  69.6592 336.6663 15.73239396  2528
STARLINK-3688           
1 52310U 22041BB  22123.58334491  .00047546  00000+0  34138-3 0  9994
2 52310  53.2150 315.8869 0001122  59.4330 348.8374 15.73192285  2528
